CCSDS_OMM_VERS = 2.0
CREATION_DATE  = 
ORIGINATOR     = 

OBJECT_NAME    = UNKNOWN
OBJECT_ID      = 
CENTER_NAME    = EARTH
REF_FRAME      = TEME
TIME_SYSTEM    = UTC
MEAN_ELEMENT_THEORY = SGP/SGP4

EPOCH          = 2026-02-16T19:27:12.119616
MEAN_MOTION    = 8.87777207
ECCENTRICITY   = .2930246
INCLINATION    = 63.4386
RA_OF_ASC_NODE = 333.6074
ARG_OF_PERICENTER = 319.6670
MEAN_ANOMALY   = 21.9483

EPHEMERIS_TYPE = 0
CLASSIFICATION_TYPE = U
NORAD_CAT_ID   = 89132
ELEMENT_SET_NO = 999
REV_AT_EPOCH   = 33097
BSTAR          = .77573E-2
MEAN_MOTION_DOT = .6008E-4
MEAN_MOTION_DDOT = 0

CCSDS_OMM_VERS = 2.0
CREATION_DATE  = 
ORIGINATOR     = 

OBJECT_NAME    = UNKNOWN
OBJECT_ID      = 
CENTER_NAME    = EARTH
REF_FRAME      = TEME
TIME_SYSTEM    = UTC
MEAN_ELEMENT_THEORY = SGP/SGP4

EPOCH          = 2026-02-19T18:27:10.128672
MEAN_MOTION    = 14.63860529
ECCENTRICITY   = .0091163
INCLINATION    = 98.2523
RA_OF_ASC_NODE = 344.5403
ARG_OF_PERICENTER = 198.4623
MEAN_ANOMALY   = 161.3264

EPHEMERIS_TYPE = 0
CLASSIFICATION_TYPE = U
NORAD_CAT_ID   = 89146
ELEMENT_SET_NO = 999
REV_AT_EPOCH   = 63897
BSTAR          = .51851E-3
MEAN_MOTION_DOT = .2824E-4
MEAN_MOTION_DDOT = 0

CCSDS_OMM_VERS = 2.0
CREATION_DATE  = 
ORIGINATOR     = 

OBJECT_NAME    = UNKNOWN
OBJECT_ID      = 
CENTER_NAME    = EARTH
REF_FRAME      = TEME
TIME_SYSTEM    = UTC
MEAN_ELEMENT_THEORY = SGP/SGP4

EPOCH          = 2026-02-19T20:39:13.144320
MEAN_MOTION    = 15.61983367
ECCENTRICITY   = .0024493
INCLINATION    = 97.6456
RA_OF_ASC_NODE = 75.7184
ARG_OF_PERICENTER = 162.7372
MEAN_ANOMALY   = 197.4723

EPHEMERIS_TYPE = 0
CLASSIFICATION_TYPE = U
NORAD_CAT_ID   = 89161
ELEMENT_SET_NO = 999
REV_AT_EPOCH   = 55928
BSTAR          = .25887E-2
MEAN_MOTION_DOT = .234823E-2
MEAN_MOTION_DDOT = 0

CCSDS_OMM_VERS = 2.0
CREATION_DATE  = 
ORIGINATOR     = 

OBJECT_NAME    = UNKNOWN
OBJECT_ID      = 
CENTER_NAME    = EARTH
REF_FRAME      = TEME
TIME_SYSTEM    = UTC
MEAN_ELEMENT_THEORY = SGP/SGP4

EPOCH          = 2026-02-16T06:47:16.629504
MEAN_MOTION    = 14.48847941
ECCENTRICITY   = .0283842
INCLINATION    = 82.0652
RA_OF_ASC_NODE = 160.3417
ARG_OF_PERICENTER = 79.4004
MEAN_ANOMALY   = 283.9023

EPHEMERIS_TYPE = 0
CLASSIFICATION_TYPE = U
NORAD_CAT_ID   = 89172
ELEMENT_SET_NO = 999
REV_AT_EPOCH   = 61137
BSTAR          = .19426E-2
MEAN_MOTION_DOT = .1234E-3
MEAN_MOTION_DDOT = 0

CCSDS_OMM_VERS = 2.0
CREATION_DATE  = 
ORIGINATOR     = 

OBJECT_NAME    = UNKNOWN
OBJECT_ID      = 
CENTER_NAME    = EARTH
REF_FRAME      = TEME
TIME_SYSTEM    = UTC
MEAN_ELEMENT_THEORY = SGP/SGP4

EPOCH          = 2026-02-20T13:42:00.577728
MEAN_MOTION    = 13.81682634
ECCENTRICITY   = .0130679
INCLINATION    = 99.2186
RA_OF_ASC_NODE = 326.0584
ARG_OF_PERICENTER = 331.3246
MEAN_ANOMALY   = 28.0765

EPHEMERIS_TYPE = 0
CLASSIFICATION_TYPE = U
NORAD_CAT_ID   = 89183
ELEMENT_SET_NO = 999
REV_AT_EPOCH   = 61661
BSTAR          = .51006E-3
MEAN_MOTION_DOT = .537E-5
MEAN_MOTION_DDOT = 0

CCSDS_OMM_VERS = 2.0
CREATION_DATE  = 
ORIGINATOR     = 

OBJECT_NAME    = UNKNOWN
OBJECT_ID      = 
CENTER_NAME    = EARTH
REF_FRAME      = TEME
TIME_SYSTEM    = UTC
MEAN_ELEMENT_THEORY = SGP/SGP4

EPOCH          = 2026-02-20T02:31:58.023552
MEAN_MOTION    = 14.85278894
ECCENTRICITY   = .0008661
INCLINATION    = 98.3861
RA_OF_ASC_NODE = 284.2568
ARG_OF_PERICENTER = 276.5552
MEAN_ANOMALY   = 83.4675

EPHEMERIS_TYPE = 0
CLASSIFICATION_TYPE = U
NORAD_CAT_ID   = 89184
ELEMENT_SET_NO = 999
REV_AT_EPOCH   = 50245
BSTAR          = .2453E-2
MEAN_MOTION_DOT = .21075E-3
MEAN_MOTION_DDOT = 0

CCSDS_OMM_VERS = 2.0
CREATION_DATE  = 
ORIGINATOR     = 

OBJECT_NAME    = UNKNOWN
OBJECT_ID      = 
CENTER_NAME    = EARTH
REF_FRAME      = TEME
TIME_SYSTEM    = UTC
MEAN_ELEMENT_THEORY = SGP/SGP4

EPOCH          = 2026-02-20T10:35:03.309792
MEAN_MOTION    = 13.91685752
ECCENTRICITY   = .0226907
INCLINATION    = 98.7735
RA_OF_ASC_NODE = 285.9154
ARG_OF_PERICENTER = 295.3514
MEAN_ANOMALY   = 62.4305

EPHEMERIS_TYPE = 0
CLASSIFICATION_TYPE = U
NORAD_CAT_ID   = 89213
ELEMENT_SET_NO = 999
REV_AT_EPOCH   = 46236
BSTAR          = .29073E-3
MEAN_MOTION_DOT = .412E-5
MEAN_MOTION_DDOT = 0

CCSDS_OMM_VERS = 2.0
CREATION_DATE  = 
ORIGINATOR     = 

OBJECT_NAME    = UNKNOWN
OBJECT_ID      = 
CENTER_NAME    = EARTH
REF_FRAME      = TEME
TIME_SYSTEM    = UTC
MEAN_ELEMENT_THEORY = SGP/SGP4

EPOCH          = 2026-02-18T23:44:55.614912
MEAN_MOTION    = 9.26445134
ECCENTRICITY   = .2828061
INCLINATION    = 62.4720
RA_OF_ASC_NODE = 274.0882
ARG_OF_PERICENTER = 106.9859
MEAN_ANOMALY   = 285.7149

EPHEMERIS_TYPE = 0
CLASSIFICATION_TYPE = U
NORAD_CAT_ID   = 89251
ELEMENT_SET_NO = 999
REV_AT_EPOCH   = 37950
BSTAR          = .66885E-2
MEAN_MOTION_DOT = .11762E-3
MEAN_MOTION_DDOT = 0

CCSDS_OMM_VERS = 2.0
CREATION_DATE  = 
ORIGINATOR     = 

OBJECT_NAME    = UNKNOWN
OBJECT_ID      = 
CENTER_NAME    = EARTH
REF_FRAME      = TEME
TIME_SYSTEM    = UTC
MEAN_ELEMENT_THEORY = SGP/SGP4

EPOCH          = 2026-02-20T10:22:13.073664
MEAN_MOTION    = 14.43288970
ECCENTRICITY   = .0011827
INCLINATION    = 98.1600
RA_OF_ASC_NODE = 47.8830
ARG_OF_PERICENTER = 311.4506
MEAN_ANOMALY   = 48.5668

EPHEMERIS_TYPE = 0
CLASSIFICATION_TYPE = U
NORAD_CAT_ID   = 89261
ELEMENT_SET_NO = 999
REV_AT_EPOCH   = 54386
BSTAR          = .25036E-3
MEAN_MOTION_DOT = .802E-5
MEAN_MOTION_DDOT = 0

CCSDS_OMM_VERS = 2.0
CREATION_DATE  = 
ORIGINATOR     = 

OBJECT_NAME    = UNKNOWN
OBJECT_ID      = 
CENTER_NAME    = EARTH
REF_FRAME      = TEME
TIME_SYSTEM    = UTC
MEAN_ELEMENT_THEORY = SGP/SGP4

EPOCH          = 2026-01-23T10:03:28.098144
MEAN_MOTION    = 9.06672246
ECCENTRICITY   = .2876157
INCLINATION    = 84.3296
RA_OF_ASC_NODE = 92.8600
ARG_OF_PERICENTER = 291.7160
MEAN_ANOMALY   = 59.5526

EPHEMERIS_TYPE = 0
CLASSIFICATION_TYPE = U
NORAD_CAT_ID   = 89304
ELEMENT_SET_NO = 999
REV_AT_EPOCH   = 44217
BSTAR          = .62545E-1
MEAN_MOTION_DOT = .69887E-3
MEAN_MOTION_DDOT = 0

CCSDS_OMM_VERS = 2.0
CREATION_DATE  = 
ORIGINATOR     = 

OBJECT_NAME    = UNKNOWN
OBJECT_ID      = 
CENTER_NAME    = EARTH
REF_FRAME      = TEME
TIME_SYSTEM    = UTC
MEAN_ELEMENT_THEORY = SGP/SGP4

EPOCH          = 2026-02-19T20:17:59.694720
MEAN_MOTION    = 12.96274789
ECCENTRICITY   = .0031979
INCLINATION    = 90.2494
RA_OF_ASC_NODE = 8.8955
ARG_OF_PERICENTER = 82.5597
MEAN_ANOMALY   = 277.9155

EPHEMERIS_TYPE = 0
CLASSIFICATION_TYPE = U
NORAD_CAT_ID   = 89349
ELEMENT_SET_NO = 999
REV_AT_EPOCH   = 48770
BSTAR          = .57126E-3
MEAN_MOTION_DOT = .171E-5
MEAN_MOTION_DDOT = 0

CCSDS_OMM_VERS = 2.0
CREATION_DATE  = 
ORIGINATOR     = 

OBJECT_NAME    = UNKNOWN
OBJECT_ID      = 
CENTER_NAME    = EARTH
REF_FRAME      = TEME
TIME_SYSTEM    = UTC
MEAN_ELEMENT_THEORY = SGP/SGP4

EPOCH          = 2026-02-20T12:26:07.696896
MEAN_MOTION    = 13.63348351
ECCENTRICITY   = .0040124
INCLINATION    = 100.4786
RA_OF_ASC_NODE = 77.0018
ARG_OF_PERICENTER = 309.6546
MEAN_ANOMALY   = 50.1056

EPHEMERIS_TYPE = 0
CLASSIFICATION_TYPE = U
NORAD_CAT_ID   = 89379
ELEMENT_SET_NO = 999
REV_AT_EPOCH   = 59028
BSTAR          = .42075E-2
MEAN_MOTION_DOT = .3282E-4
MEAN_MOTION_DDOT = 0

