UNKNOWN                 
1 89132U          26047.81055694  .00006008  00000+0  77573-2 0  9994
2 89132  63.4386 333.6074 2930246 319.6670  21.9483  8.87777207330971
UNKNOWN                 
1 89146U          26050.76886723  .00002824  00000+0  51851-3 0  9996
2 89146  98.2523 344.5403 0091163 198.4623 161.3264 14.63860529638975
UNKNOWN                 
1 89161U          26050.86056880  .00234823  00000+0  25887-2 0  9992
2 89161  97.6456  75.7184 0024493 162.7372 197.4723 15.61983367559287
UNKNOWN                 
1 89172U          26047.28283136  .00012340  00000+0  19426-2 0  9992
2 89172  82.0652 160.3417 0283842  79.4004 283.9023 14.48847941611370
UNKNOWN                 
1 89183U          26051.57084002  .00000537  00000+0  51006-3 0  9998
2 89183  99.2186 326.0584 0130679 331.3246  28.0765 13.81682634616612
UNKNOWN                 
1 89184U          26051.10553268  .00021075  00000+0  24530-2 0  9994
2 89184  98.3861 284.2568 0008661 276.5552  83.4675 14.85278894502450
UNKNOWN                 
1 89213U          26051.44101053  .00000412  00000+0  29073-3 0  9995
2 89213  98.7735 285.9154 0226907 295.3514  62.4305 13.91685752462361
UNKNOWN                 
1 89251U          26049.98953258  .00011762  00000+0  66885-2 0  9996
2 89251  62.4720 274.0882 2828061 106.9859 285.7149  9.26445134379502
UNKNOWN                 
1 89261U          26051.43209576  .00000802  00000+0  25036-3 0  9994
2 89261  98.1600  47.8830 0011827 311.4506  48.5668 14.43288970543860
UNKNOWN                 
1 89304U          26023.41907521  .00069887  00000+0  62545-1 0  9996
2 89304  84.3296  92.8600 2876157 291.7160  59.5526  9.06672246442177
UNKNOWN                 
1 89349U          26050.84582980  .00000171  00000+0  57126-3 0  9992
2 89349  90.2494   8.8955 0031979  82.5597 277.9155 12.96274789487700
UNKNOWN                 
1 89379U          26051.51814464  .00003282  00000+0  42075-2 0  9997
2 89379 100.4786  77.0018 0040124 309.6546  50.1056 13.63348351590289
